
# C41 (GNSS)
1 44864U 19090A   25264.46373029 -.00000014  00000+0  00000+0 0  9992
2 44864  56.3199  71.6882 0015497 287.0796  81.5351  1.86231655 39235

# C42 (GNSS)
1 44865U 19090B   25260.55884435  .00000007  00000+0  00000+0 0  9998
2 44865  56.3202  71.8516 0012938 303.3771  56.8304  1.86231402 39142

# C60 (GNSS)
1 45344U 20017A   25264.59534128 -.00000150  00000+0  00000+0 0  9991
2 45344   2.8452  42.1939 0001461 278.4758 334.4019  1.00273012 20567

# C61 (GNSS)
1 45807U 20040A   25264.69175637 -.00000362  00000+0  00000+0 0  9993
2 45807   1.7882  65.6593 0004276 329.4649 325.2967  1.00270377 19373

# C62 (GNSS)
1 56564U 23066A   25264.58030949 -.00000123  00000+0  00000+0 0  9995
2 56564   1.0025 296.4469 0005804 213.6536 219.5762  1.00272048  8700

# C50 (GNSS)
1 58654U 23207A   25257.84021662 -.00000003  00000+0  00000+0 0  9994
2 58654  55.6103  71.5942 0004602 147.7169 212.3485  1.86230208 11710

# E24 (GNSS)
1 40889U 15045A   25264.58057148 -.00000009  00000+0  00000+0 0  9999
2 40889  55.0363 229.0247 0003876  17.2010 342.7602  1.70473150 62431

# E30 (GNSS)
1 40890U 15045B   25264.21464766 -.00000010  00000+0  00000+0 0  9991
2 40890  55.0353 229.0299 0002176 348.7791  11.1642  1.70473175 62459

# E07 (GNSS)
1 41859U 16069A   25262.91725260  .00000029  00000+0  00000+0 0  9997
2 41859  55.3280 108.5711 0002657 345.8370  14.2533  1.70473918 54798

# E08 (GNSS)
1 41175U 15079B   25262.84399051  .00000030  00000+0  00000+0 0  9997
2 41175  55.6580 108.6809 0002833  15.9078 344.1990  1.70473861 60583

# E09 (GNSS)
1 41174U 15079A   25262.03730859  .00000028  00000+0  00000+0 0  9999
2 41174  55.6589 108.7057 0003165   6.5329 353.5680  1.70474012 60153

# E01 (GNSS)
1 41550U 16030B   25259.11878575  .00000017  00000+0  00000+0 0  9996
2 41550  55.1864 229.2291 0003921 246.5431 113.3866  1.70473510 57999

# E02 (GNSS)
1 41549U 16030A   25262.38061359 -.00000010  00000+0  00000+0 0  9995
2 41549  55.1855 229.1414 0003408 326.0404  33.8908  1.70473139 58055

# E03 (GNSS)
1 41860U 16069B   25263.94418140  .00000030  00000+0  00000+0 0  9991
2 41860  55.3265 108.5383 0003200  33.6542 326.4633  1.70474174 55061

# E04 (GNSS)
1 41861U 16069C   25261.96556488  .00000027  00000+0  00000+0 0  9996
2 41861  55.3274 108.6006 0001962 310.2606  49.8185  1.70474485 54896

# E05 (GNSS)
1 41862U 16069D   25262.69803646  .00000029  00000+0  00000+0 0  9991
2 41862  55.3263 108.5733 0001278 336.2445  23.8471  1.70474166 55033

# E21 (GNSS)
1 43055U 17079A   25262.60091282 -.00000011  00000+0  00000+0 0  9997
2 43055  55.1631 228.9508 0003112 274.0152  85.9013  1.70473927 48370

# E25 (GNSS)
1 43056U 17079B   25261.71909407 -.00000007  00000+0  00000+0 0  9991
2 43056  55.1637 228.9751 0004484 281.7147  78.1913  1.70474053 48373

# E27 (GNSS)
1 43057U 17079C   25263.11292191 -.00000012  00000+0  00000+0 0  9999
2 43057  55.1613 228.9348 0003805 294.6908  65.2198  1.70473974 48388

# E31 (GNSS)
1 43058U 17079D   25263.33299237 -.00000012  00000+0  00000+0 0  9992
2 43058  55.1614 228.9265 0004912 278.4108  81.4830  1.70474003 48411

# E36 (GNSS)
1 43566U 18060C   25258.98363863 -.00000107  00000+0  00000+0 0  9994
2 43566  57.2517 349.1941 0003379 267.6081  92.3857  1.70476146 44510

# E13 (GNSS)
1 43567U 18060D   25260.96427996 -.00000110  00000+0  00000+0 0  9998
2 43567  57.2508 349.1403 0004489 263.4560  96.5264  1.70475992 44531

# E15 (GNSS)
1 43564U 18060A   25257.37002056 -.00000102  00000+0  00000+0 0  9993
2 43564  57.2495 349.2331 0007557 265.8316  94.1169  1.70475731 44469

# E33 (GNSS)
1 43565U 18060B   25262.86848934 -.00000109  00000+0  00000+0 0  9994
2 43565  57.2515 349.0877 0004844 238.0058 121.9854  1.70476044 44601

# E34 (GNSS)
1 49809U 21116A   25259.67254214 -.00000109  00000+0  00000+0 0  9994
2 49809  57.2408 349.0665 0003991 215.3559 162.5615  1.70476038 23527

# E10 (GNSS)
1 49810U 21116B   25264.29420161 -.00000107  00000+0  00000+0 0  9994
2 49810  57.2405 348.9406 0003393 212.1866 234.7288  1.70476448 23623

# R01 (GNSS)
1 36111U 09070A   25264.23935398  .00000024  00000+0  00000+0 0  9993
2 36111  64.8527  80.1574 0001616 348.6248 218.9457  2.13103704122697

# R02 (GNSS)
1 39155U 13019A   25264.02505627  .00000032  00000+0  00000+0 0  9996
2 39155  65.2692  82.6475 0022575 226.5640 133.2938  2.13104532 96547

# R03 (GNSS)
1 37867U 11064A   25264.55703444  .00000026  00000+0  00000+0 0  9990
2 37867  65.1165  81.9506 0022023 230.7250 129.5872  2.13101524108040

# R04 (GNSS)
1 44850U 19088A   25264.14258192  .00000031  00000+0  00000+0 0  9990
2 44850  65.4147  82.7195 0011641 246.7146 113.2082  2.13102020 44988

# R05 (GNSS)
1 43508U 18053A   25262.79033598  .00000042  00000+0  00000+0 0  9992
2 43508  65.4268  82.9364 0007146 213.9066 146.0990  2.13102203 56510

# R06 (GNSS)
1 36112U 09070B   25262.15183821  .00000040  00000+0  00000+0 0  9997
2 36112  64.8368  80.0779 0005989 136.2592  39.7654  2.13101104122653

# R07 (GNSS)
1 37868U 11064B   25262.20392052  .00000044  00000+0  00000+0 0  9990
2 37868  65.1215  82.1070 0019073 231.0081 304.5811  2.13102961107989

# R08 (GNSS)
1 37869U 11064C   25264.39567782  .00000027  00000+0  00000+0 0  9998
2 37869  65.1298  82.0521 0023860 247.1891 126.1781  2.13101769108044

# R09 (GNSS)
1 40315U 14075A   25263.94574912 -.00000021  00000+0  00000+0 0  9991
2 40315  63.6160 199.6909 0021161 209.6220 150.2450  2.13101380 84112

# R10 (GNSS)
1 32395U 07065C   25264.18297069 -.00000018  00000+0  00000+0 0  9999
2 32395  64.3255 201.0571 0017065 358.7515 142.4408  2.13100027137996

# R11 (GNSS)
1 46805U 20075A   25264.05646892 -.00000020  00000+0  00000+0 0  9997
2 46805  64.5980 201.4555 0008098 238.1158 121.7903  2.13099869 38171

# R12 (GNSS)
1 44299U 19030A   25264.36280309 -.00000016  00000+0  00000+0 0  9997
2 44299  64.3673 201.6663 0011958 278.9618 266.8461  2.13102161 49191

# R13 (GNSS)
1 32393U 07065A   25264.64586821 -.00000013  00000+0  00000+0 0  9990
2 32393  64.3169 200.9721 0001576  48.8188 314.0462  2.13101279138051

# R14 (GNSS)
1 42939U 17055A   25264.23746428 -.00000018  00000+0  00000+0 0  9998
2 42939  64.0781 201.0370 0009061 237.9313 121.9668  2.13101988 62242

# R15 (GNSS)
1 43687U 18086A   25260.07228230 -.00000019  00000+0  00000+0 0  9999
2 43687  64.2944 201.8145 0010476 257.6899 102.1777  2.13101907 53461

# R16 (GNSS)
1 54377U 22161A   25263.41664611 -.00000026  00000+0  00000+0 0  9992
2 54377  64.7397 201.6644 0010640 220.3660 139.5378  2.13102093 21883

# R17 (GNSS)
1 41330U 16008A   25264.39905908 -.00000050  00000+0  00000+0 0  9992
2 41330  65.1781 322.2256 0013372 211.7873 148.2079  2.13102665 74893

# R18 (GNSS)
1 39620U 14012A   25263.98327515 -.00000051  00000+0  00000+0 0  9991
2 39620  65.4517 323.0788 0012236 307.6427  52.3221  2.13103278 89508

# R19 (GNSS)
1 54031U 22130A   25264.04158159 -.00000055  00000+0  00000+0 0  9992
2 54031  64.4259 324.0526 0013152 188.3184 171.7336  2.13101665 22953

# R20 (GNSS)
1 32276U 07052B   25264.15718941 -.00000054  00000+0  00000+0 0  9997
2 32276  65.7408 325.1032 0009152 307.9095  93.8169  2.13103204139351

# R21 (GNSS)
1 40001U 14032A   25264.62582122 -.00000051  00000+0  00000+0 0  9997
2 40001  65.3871 322.8257 0009292 207.4519 152.5751  2.13105972 87737

# R22 (GNSS)
1 52984U 22075A   25264.22260836 -.00000055  00000+0  00000+0 0  9991
2 52984  64.4533 323.9540 0012959 271.2771  88.6489  2.13102193 24982

# R23 (GNSS)
1 36402U 10007C   25264.28703075 -.00000052  00000+0  00000+0 0  9990
2 36402  65.5726 323.5590 0002466 224.3156 147.9525  2.13106281121007

# R24 (GNSS)
1 45358U 20018A   25264.33870306 -.00000051  00000+0  00000+0 0  9990
2 45358  64.5148 321.8611 0011872 238.5160 121.4436  2.13102562 42932

# R25 (GNSS)
1 32275U 07052A   25264.03080457 -.00000053  00000+0  00000+0 0  9996
2 32275  65.7251 324.9848 0005452 230.3765 129.6500  2.13104204139325
